[{"OBJECT_NAME":"STARLINK-5534","OBJECT_ID":"2023-064AF","EPOCH":"2026-03-09T02:31:15.093984","MEAN_MOTION":14.98347696,"ECCENTRICITY":0.00034307,"INCLINATION":69.9988,"RA_OF_ASC_NODE":125.8565,"ARG_OF_PERICENTER":273.9201,"MEAN_ANOMALY":86.1566,"EPHEMERIS_TYPE":0,"CLASSIFICATION_TYPE":"U","NORAD_CAT_ID":56477,"ELEMENT_SET_NO":999,"REV_AT_EPOCH":15565,"BSTAR":-0.00036831184,"MEAN_MOTION_DOT":-4.487e-5,"MEAN_MOTION_DDOT":0},{"OBJECT_NAME":"DEORBITSAIL","OBJECT_ID":"2015-032E","EPOCH":"2026-03-09T13:39:47.460384","MEAN_MOTION":15.02284863,"ECCENTRICITY":0.0012066,"INCLINATION":97.5981,"RA_OF_ASC_NODE":287.3228,"ARG_OF_PERICENTER":211.0438,"MEAN_ANOMALY":149.0075,"EPHEMERIS_TYPE":0,"CLASSIFICATION_TYPE":"U","NORAD_CAT_ID":40719,"ELEMENT_SET_NO":999,"REV_AT_EPOCH":57628,"BSTAR":0.0007398,"MEAN_MOTION_DOT":9.73e-5,"MEAN_MOTION_DDOT":0}]
